NORAD_CAT_ID,OBJECT_NAME,OBJECT_TYPE,EPOCH,MEAN_MOTION,ECCENTRICITY,INCLINATION,RA_OF_ASC_NODE,ARG_OF_PERICENTER,MEAN_ANOMALY,BSTAR,MEAN_MOTION_DOT,MEAN_MOTION_DDOT,TLE_LINE0,TLE_LINE1,TLE_LINE2,SEMIMAJOR_AXIS,PERIOD,APOGEE,PERIGEE,DECAYED
52685.0,STARLINK-4029,PAYLOAD,2022-05-24 16:00:00,15.80202111,0.0001706999999999,53.2163,267.0631,42.0715,150.555,-0.0041138,-0.00725117,0.0,0 STARLINK-4029,1 52685U 22017AF  22144.66667824 -.00725117  00000-0 -41138-2 0  9990,2 52685  53.2163 267.0631 0001707  42.0715 150.5550 15.80202111  1303,6708.005999999999,91.128,331.016,328.726,0.0
52685.0,STARLINK-4029,PAYLOAD,2022-05-24 22:00:00,15.7984997,0.0001646,53.2171,265.8137,35.9927,139.464,-0.0051637,-0.00879348,0.0,0 STARLINK-4029,1 52685U 22053AF  22144.91667824 -.00879348  00000-0 -51637-2 0  9999,2 52685  53.2171 265.8137 0001646  35.9927 139.4640 15.79849970  1301,6709.002,91.148,331.972,329.7630000000001,0.0
52685.0,STARLINK-4029,PAYLOAD,2022-05-25 04:00:00,15.79374443,0.000172,53.2174,264.5631,32.1577,125.7705,-0.0052321,-0.00872479,0.0,0 STARLINK-4029,1 52685U 22053AF  22145.16667824 -.00872479  00000-0 -52321-2 0  9996,2 52685  53.2174 264.5631 0001720  32.1577 125.7705 15.79374443  1377,6710.349,91.175,333.36800000000005,331.06,0.0
52685.0,STARLINK-4029,PAYLOAD,2022-05-25 14:00:01,15.78591391,0.0001943,53.2175,262.4851,21.9852,345.7783,-0.0054638,-0.00878557,0.0,0 STARLINK-4029,1 52685U 22053AF  22145.58334491 -.00878557  00000-0 -54638-2 0  9999,2 52685  53.2175 262.4851 0001943  21.9852 345.7783 15.78591391  1303,6712.568,91.221,335.737,333.129,0.0
52685.0,STARLINK-4029,PAYLOAD,2022-05-25 20:00:01,15.78118949,0.0001364,53.2171,261.2389,36.0311,313.0672,-0.0055677,-0.00876284,0.0,0 STARLINK-4029,1 52685U 22053AF  22145.83334491 -.00876284  00000-0 -55677-2 0  9996,2 52685  53.2171 261.2389 0001364  36.0311 313.0672 15.78118949  1484,6713.906999999997,91.248,336.6880000000001,334.857,0.0
52685.0,STARLINK-4029,PAYLOAD,2022-05-25 22:00:00,15.77961144,0.0001505,53.2171,260.8228,36.2386,66.5447,-0.0056095,-0.008766,0.0,0 STARLINK-4029,1 52685U 22053AF  22145.91667824 -.00876600  00000-0 -56095-2 0  9991,2 52685  53.2171 260.8228 0001505  36.2386  66.5447 15.77961144  1305,6714.355,91.257,337.231,335.21,0.0
52685.0,STARLINK-4029,PAYLOAD,2022-05-26 14:00:01,15.76702606,0.0001844,53.2172,257.5039,28.7793,261.7736,-0.0059383,-0.00877035,0.0,0 STARLINK-4029,1 52685U 22053AF  22146.58334491 -.00877035  00000-0 -59383-2 0  9992,2 52685  53.2172 257.5039 0001844  28.7793 261.7736 15.76702606  1308,6717.928000000001,91.33,341.031,338.5540000000001,0.0
52685.0,STARLINK-4029,PAYLOAD,2022-05-26 20:00:01,15.7623071,0.0001409,53.2172,256.2608,43.2957,226.8904,-0.0060526,-0.00875328,0.0,0 STARLINK-4029,1 52685U 22053AF  22146.83334491 -.00875328  00000-0 -60526-2 0  9994,2 52685  53.2172 256.2608 0001409  43.2957 226.8904 15.76230710  1645,6719.268,91.357,342.08,340.1869999999999,0.0
52685.0,STARLINK-4029,PAYLOAD,2022-05-26 22:00:00,15.76073415,0.0001330999999999,53.2173,255.8462,37.4906,345.8128,-0.0061004,-0.00875997,0.0,0 STARLINK-4029,1 52685U 22053AF  22146.91667824 -.00875997  00000-0 -61004-2 0  9996,2 52685  53.2173 255.8462 0001331  37.4906 345.8128 15.76073415  1302,6719.715,91.366,342.475,340.686,0.0
52685.0,STARLINK-4029,PAYLOAD,2022-05-27 14:00:01,15.74813585,0.0002126,53.2175,252.5365,26.5551,179.9812,-0.0064336,-0.00874351,0.0,0 STARLINK-4029,1 52685U 22053AF  22147.58334491 -.00874351  00000-0 -64336-2 0  9995,2 52685  53.2175 252.5365 0002126  26.5551 179.9812 15.74813585  1762,6723.299,91.439,346.593,343.7340000000001,0.0
52685.0,STARLINK-4029,PAYLOAD,2022-05-27 22:00:01,15.74187391,0.0001403,53.2173,250.883,41.808,255.2754,-0.0066614,-0.0087997,0.0,0 STARLINK-4029,1 52685U 22053AF  22147.91668981 -.00879970  00000-0 -66614-2 0  9999,2 52685  53.2173 250.8830 0001403  41.8080 255.2754 15.74187391  1304,6725.081999999999,91.476,347.89,346.00300000000016,0.0
52685.0,STARLINK-4029,PAYLOAD,2022-05-28 04:00:00,15.73575472,0.0001702,53.2172,249.6431,38.5237,235.8861,-0.0037566,-0.00505507,0.0,0 STARLINK-4029,1 52685U 22053AF  22148.16667824 -.00505507  00000-0 -37566-2 0  9998,2 52685  53.2172 249.6431 0001702  38.5237 235.8861 15.73575472  1858,6726.825,91.511,349.835,347.545,0.0
52685.0,STARLINK-4029,PAYLOAD,2022-05-28 12:00:00,15.7320573,0.0001638,53.2172,247.9948,354.0531,9.5068,-1.7911e-05,-3.134e-05,0.0,0 STARLINK-4029,1 52685U 22053AF  22148.50001157 -.00003134  00000-0 -17911-4 0  9990,2 52685  53.2172 247.9948 0001638 354.0531   9.5068 15.73205730  1901,6727.879,91.533,350.846,348.642,0.0
52685.0,STARLINK-4029,PAYLOAD,2022-05-28 14:00:01,15.73206939,0.0001698,53.2172,247.583,354.8075,120.9851,-3.3082e-05,-5.262e-05,0.0,0 STARLINK-4029,1 52685U 22053AF  22148.58334491 -.00005262  00000-0 -33082-4 0  9999,2 52685  53.2172 247.5830 0001698 354.8075 120.9851 15.73206939  1308,6727.875,91.533,350.8830000000001,348.598,0.0
52685.0,STARLINK-4029,PAYLOAD,2022-05-28 22:00:00,15.73319383,0.0001453,53.215,245.927,15.0651,189.7994,-0.0010702,-0.00148949,0.0,0 STARLINK-4029,1 52685U 22053AF  22148.91667824 -.00148949  00000-0 -10702-2 0  9997,2 52685  53.2150 245.9270 0001453  15.0651 189.7994 15.73319383  1971,6727.555,91.526,350.397,348.44199999999995,0.0
52685.0,STARLINK-4029,PAYLOAD,2022-05-29 04:00:00,15.73207405,0.0001403,53.2152,244.6884,28.5575,153.0723,0.00014907,0.00020358,0.0,0 STARLINK-4029,1 52685U 22053AF  22149.16667824  .00020358  00000-0  14907-3 0  9998,2 52685  53.2152 244.6884 0001403  28.5575 153.0723 15.73207405  2009,6727.874,91.533,350.68300000000005,348.795,0.0
52685.0,STARLINK-4029,PAYLOAD,2022-05-29 10:51:18,15.73172254,0.0004688,53.2111,243.2753,357.606,2.4937,0.00025491,0.00035278,0.0,0 STARLINK-4029,1 52685U 22053AF  22149.45229529  .00035278  00000-0  25491-3 0  9993,2 52685  53.2111 243.2753 0004688 357.6060   2.4937 15.73172254  2059,6727.974,91.535,352.99300000000005,346.685,0.0
52685.0,STARLINK-4029,PAYLOAD,2022-05-29 14:00:01,15.73171845,0.000177,53.2152,242.6289,31.5988,351.165,-0.00023005,-0.00032744,0.0,0 STARLINK-4029,1 52685U 22053AF  22149.58334491 -.00032744  00000-0 -23005-3 0  9998,2 52685  53.2152 242.6289 0001770  31.5988 351.1650 15.73171845  1305,6727.975,91.535,351.031,348.65,0.0
52685.0,STARLINK-4029,PAYLOAD,2022-05-29 20:00:11,15.73159438,8.4e-05,53.2122,241.3892,39.8486,320.2595,1.4769e-05,1.451e-05,0.0,0 STARLINK-4029,1 52685U 22053AF  22149.83346512  .00001451  00000-0  14769-4 0  9990,2 52685  53.2122 241.3892 0000840  39.8486 320.2595 15.73159438  2488,6728.011,91.536,350.441,349.311,0.0
52685.0,STARLINK-4029,PAYLOAD,2022-05-30 04:00:00,15.73134169,0.0001581,53.2146,239.7403,35.9738,52.3531,0.00022992,0.00031679,0.0,0 STARLINK-4029,1 52685U 22053AF  22150.16667824  .00031679  00000-0  22992-3 0  9991,2 52685  53.2146 239.7403 0001581  35.9738  52.3531 15.73134169  2165,6728.083000000001,91.537,351.01199999999994,348.884,0.0
52685.0,STARLINK-4029,PAYLOAD,2022-05-30 12:46:31,15.73029932,0.0001919,53.2133,237.9315,22.9964,337.1141,-0.00077857,-0.00107724,0.0,0 STARLINK-4029,1 52685U 22053AF  22150.53230741 -.00107724  00000-0 -77857-3 0  9993,2 52685  53.2133 237.9315 0001919  22.9964 337.1141 15.73029932  2224,6728.38,91.543,351.536,348.954,0.0
52685.0,STARLINK-4029,PAYLOAD,2022-05-30 12:46:32,15.72929977,0.0002308,53.2133,237.9313,42.6445,317.4754,-0.0014889,-0.0020232,0.0,0 STARLINK-4029,1 52685U 22053AF  22150.53231955 -.00202320  00000-0 -14889-2 0  9994,2 52685  53.2133 237.9313 0002308  42.6445 317.4754 15.72929977  2596,6728.665,91.549,352.083,348.977,0.0
52685.0,STARLINK-4029,PAYLOAD,2022-05-30 20:23:54,15.73207009,0.0002578,53.2136,236.3597,45.4503,314.6728,0.00045609,0.00063903,0.0,0 STARLINK-4029,1 52685U 22053AF  22150.84993729  .00063903  00000-0  45609-3 0  9997,2 52685  53.2136 236.3597 0002578  45.4503 314.6728 15.73207009  2272,6727.875,91.533,351.475,348.006,0.0
52685.0,STARLINK-4029,PAYLOAD,2022-05-30 22:00:00,15.73258309,0.0001944,53.2149,236.0303,37.3881,340.9324,-0.00014484,-0.0002095,0.0,0 STARLINK-4029,1 52685U 22053AF  22150.91667824 -.00020950  00000-0 -14484-3 0  9993,2 52685  53.2149 236.0303 0001944  37.3881 340.9324 15.73258309  1309,6727.729,91.53,350.902,348.286,0.0
52685.0,STARLINK-4029,PAYLOAD,2022-05-31 04:00:00,15.73234291,0.000181,53.215,234.7919,39.5257,315.5334,-6.5363e-05,-9.798e-05,0.0,0 STARLINK-4029,1 52685U 22053AF  22151.16667824 -.00009798  00000-0 -65363-4 0  9991,2 52685  53.2150 234.7919 0001810  39.5257 315.5334 15.73234291  2328,6727.797,91.531,350.88,348.445,0.0
52685.0,STARLINK-4029,PAYLOAD,2022-05-31 05:32:46,15.73232662,0.0001898,53.2149,234.4735,44.1909,315.9262,0.00024414,0.0003383,0.0,0 STARLINK-4029,1 52685U 22053AF  22151.23109856  .00033830  00000-0  24414-3 0  9998,2 52685  53.2149 234.4735 0001898  44.1909 315.9262 15.73232662  2707,6727.802,91.531,350.944,348.39,0.0
52685.0,STARLINK-4029,PAYLOAD,2022-05-31 22:00:00,15.73219214,0.000184,53.2142,231.0814,28.6876,256.5454,1.3096e-05,1.219e-05,0.0,0 STARLINK-4029,1 52685U 22053AF  22151.91667824  .00001219  00000-0  13096-4 0  9998,2 52685  53.2142 231.0814 0001840  28.6876 256.5454 15.73219214  1304,6727.84,91.532,350.9430000000001,348.467,0.0
52685.0,STARLINK-4029,PAYLOAD,2022-06-01 12:02:21,15.73246745,0.0001943,53.2145,228.1859,35.5869,324.528,0.00014767,0.00020196,0.0,0 STARLINK-4029,1 52685U 22053AF  22152.50163553  .00020196  00000-0  14767-3 0  9994,2 52685  53.2145 228.1859 0001943  35.5869 324.5280 15.73246745  2534,6727.762,91.53,350.934,348.32,0.0
52685.0,STARLINK-4029,PAYLOAD,2022-06-01 20:00:01,15.73244089,0.0001952,53.2141,226.5456,23.1993,56.6853,-0.00068958,-0.00096487,0.0,0 STARLINK-4029,1 52685U 22053AF  22152.83334491 -.00096487  00000-0 -68958-3 0  9990,2 52685  53.2141 226.5456 0001952  23.1993  56.6853 15.73244089  2589,6727.769,91.531,350.9480000000001,348.321,0.0
